NORAD_CAT_ID,OBJECT_NAME,OBJECT_TYPE,EPOCH,MEAN_MOTION,ECCENTRICITY,INCLINATION,RA_OF_ASC_NODE,ARG_OF_PERICENTER,MEAN_ANOMALY,BSTAR,MEAN_MOTION_DOT,MEAN_MOTION_DDOT,TLE_LINE0,TLE_LINE1,TLE_LINE2,SEMIMAJOR_AXIS,PERIOD,APOGEE,PERIGEE,DECAYED
53904.0,STARLINK-4787,PAYLOAD,2024-06-18 13:32:21,15.08841167,0.0001161,53.2178,267.9794,95.5787,264.5337,0.00014427,2.009e-05,0.0,0 STARLINK-4787,1 53904U 22119U   24170.56413836  .00002009  00000-0  14427-3 0  9998,2 53904  53.2178 267.9794 0001161  95.5787 264.5337 15.08841167 96290,6917.877,95.437,540.545,538.939,0.0
53904.0,STARLINK-4787,PAYLOAD,2024-06-19 13:23:09,15.08825583,0.0001139,53.2175,263.5191,95.4978,264.6144,4.8836e-05,4.89e-06,0.0,0 STARLINK-4787,1 53904U 22119U   24171.55775295  .00000489  00000-0  48836-4 0  9990,2 53904  53.2175 263.5191 0001139  95.4978 264.6144 15.08825583 96444,6917.924,95.438,540.577,539.002,0.0
53904.0,STARLINK-4787,PAYLOAD,2024-06-20 11:38:33,15.08840685,0.00011,53.2156,259.3533,79.0546,281.057,5.459e-05,5.81e-06,0.0,0 STARLINK-4787,1 53904U 22119U   24172.48510586  .00000581  00000-0  54590-4 0  9990,2 53904  53.2156 259.3533 0001100  79.0546 281.0570 15.08840685 97002,6917.878,95.438,540.504,538.982,0.0
53904.0,STARLINK-4787,PAYLOAD,2024-06-20 14:49:19,15.08844398,0.000115,53.2163,258.7596,83.8418,276.2705,8.1535e-05,1.01e-05,0.0,0 STARLINK-4787,1 53904U 22119U   24172.61758269  .00001010  00000-0  81535-4 0  9994,2 53904  53.2163 258.7596 0001150  83.8418 276.2705 15.08844398 96604,6917.867,95.437,540.528,538.936,0.0
53904.0,STARLINK-4787,PAYLOAD,2024-06-21 11:29:20,15.08834778,0.0001253,53.217,254.8941,94.9362,265.1774,0.00012468,1.697e-05,0.0,0 STARLINK-4787,1 53904U 22119U   24173.47870897  .00001697  00000-0  12468-3 0  9990,2 53904  53.2170 254.8941 0001253  94.9362 265.1774 15.08834778 96736,6917.896,95.438,540.628,538.895,0.0
53904.0,STARLINK-4787,PAYLOAD,2024-06-21 13:04:43,15.08834782,0.0001302,53.2169,254.5967,78.017,282.0968,0.00013167,1.808e-05,0.0,0 STARLINK-4787,1 53904U 22119U   24173.54495000  .00001808  00000-0  13167-3 0  9998,2 53904  53.2169 254.5967 0001302  78.0170 282.0968 15.08834782 97160,6917.896,95.438,540.662,538.861,0.0
53904.0,STARLINK-4787,PAYLOAD,2024-06-22 11:20:07,15.08838393,0.0001494,53.2173,250.4343,80.7989,279.3172,9.147e-05,1.168e-05,0.0,0 STARLINK-4787,1 53904U 22119U   24174.47230946  .00001168  00000-0  91470-4 0  9990,2 53904  53.2173 250.4343 0001494  80.7989 279.3172 15.08838393 97302,6917.885,95.438,540.784,538.717,0.0
53904.0,STARLINK-4787,PAYLOAD,2024-06-23 11:10:54,15.08841914,0.0001359,53.2174,245.9736,75.6685,284.4458,8.8172e-05,1.116e-05,0.0,0 STARLINK-4787,1 53904U 22119U   24175.46590704  .00001116  00000-0  88172-4 0  9999,2 53904  53.2174 245.9736 0001359  75.6685 284.4458 15.08841914 97031,6917.875,95.437,540.68,538.799,0.0
53904.0,STARLINK-4787,PAYLOAD,2024-06-23 14:21:40,15.08843884,0.0001357,53.2167,245.3782,77.3829,282.7315,9.9509e-05,1.296e-05,0.0,0 STARLINK-4787,1 53904U 22119U   24175.59838494  .00001296  00000-0  99509-4 0  9999,2 53904  53.2167 245.3782 0001357  77.3829 282.7315 15.08843884 97474,6917.869,95.437,540.672,538.795,0.0
53904.0,STARLINK-4787,PAYLOAD,2024-06-24 12:37:04,15.08844927,0.0001292,53.2172,241.214,100.6493,259.4644,7.7743e-05,9.5e-06,0.0,0 STARLINK-4787,1 53904U 22119U   24176.52574169  .00000950  00000-0  77743-4 0  9991,2 53904  53.2172 241.2140 0001292 100.6493 259.4644 15.08844927 97619,6917.865,95.437,540.624,538.837,0.0
53904.0,STARLINK-4787,PAYLOAD,2024-06-25 09:17:05,15.08838926,0.0001392,53.2175,237.3479,96.2139,263.9012,7.7542e-06,-1.65e-06,0.0,0 STARLINK-4787,1 53904U 22119U   24177.38686751 -.00000165  00000-0  77542-5 0  9994,2 53904  53.2175 237.3479 0001392  96.2139 263.9012 15.08838926 97320,6917.884,95.438,540.712,538.786,0.0
53904.0,STARLINK-4787,PAYLOAD,2024-06-25 12:27:51,15.08840479,0.0001414,53.2176,236.753,97.931,262.1843,2.1254e-05,5e-07,0.0,0 STARLINK-4787,1 53904U 22119U   24177.51934606  .00000050  00000-0  21254-4 0  9994,2 53904  53.2176 236.7530 0001414  97.9310 262.1843 15.08840479 97763,6917.879,95.438,540.722,538.766,0.0
53904.0,STARLINK-4787,PAYLOAD,2024-06-26 09:07:52,15.08838691,0.0001457,53.2171,232.8872,105.0395,255.0759,3.8924e-05,3.32e-06,0.0,0 STARLINK-4787,1 53904U 22119U   24178.38046610  .00000332  00000-0  38924-4 0  9994,2 53904  53.2171 232.8872 0001457 105.0395 255.0759 15.08838691 97899,6917.884,95.438,540.757,538.741,0.0
53904.0,STARLINK-4787,PAYLOAD,2024-06-27 10:34:02,15.08838123,0.0001266,53.2162,228.1317,92.2595,267.8542,3.2371e-05,2.27e-06,0.0,0 STARLINK-4787,1 53904U 22119U   24179.44030976  .00000227  00000-0  32371-4 0  9993,2 53904  53.2162 228.1317 0001266  92.2595 267.8542 15.08838123 97631,6917.886,95.438,540.627,538.875,0.0
53904.0,STARLINK-4787,PAYLOAD,2024-06-27 12:09:25,15.08838673,0.0001237,53.216,227.8339,88.5313,271.5821,3.2978e-05,2.37e-06,0.0,0 STARLINK-4787,1 53904U 22119U   24179.50654957  .00000237  00000-0  32978-4 0  9995,2 53904  53.2160 227.8339 0001237  88.5313 271.5821 15.08838673 98063,6917.884,95.438,540.605,538.894,0.0
53904.0,STARLINK-4787,PAYLOAD,2024-06-28 10:24:49,15.08837693,0.0001224,53.2154,223.6705,85.7534,274.3598,5.6471e-05,6.11e-06,0.0,0 STARLINK-4787,1 53904U 22119U   24180.43391189  .00000611  00000-0  56471-4 0  9994,2 53904  53.2154 223.6705 0001224  85.7534 274.3598 15.08837693 98206,6917.887,95.438,540.599,538.906,0.0
53904.0,STARLINK-4787,PAYLOAD,2024-06-29 11:50:59,15.08846574,0.0001239,53.215,218.9127,89.6189,270.4945,0.00014751,2.061e-05,0.0,0 STARLINK-4787,1 53904U 22119U   24181.49374428  .00002061  00000-0  14751-3 0  9993,2 53904  53.2150 218.9127 0001239  89.6189 270.4945 15.08846574 97943,6917.86,95.437,540.582,538.868,0.0
53904.0,STARLINK-4787,PAYLOAD,2024-06-29 19:47:55,15.08845984,0.0001245,53.2149,217.4255,85.2534,274.86,0.000133,1.83e-05,0.0,0 STARLINK-4787,1 53904U 22119U   24181.82494453  .00001830  00000-0  13300-3 0  9993,2 53904  53.2149 217.4255 0001245  85.2534 274.8600 15.08845984 98413,6917.862,95.437,540.588,538.866,0.0
53904.0,STARLINK-4787,PAYLOAD,2024-06-30 08:31:01,15.0883293,0.000124,53.2147,215.046,101.4519,258.6612,-8.8624e-06,-4.29e-06,0.0,0 STARLINK-4787,1 53904U 22119U   24182.35487762 -.00000429  00000-0 -88624-5 0  9995,2 53904  53.2147 215.0460 0001240 101.4519 258.6612 15.08832930 98074,6917.902,95.438,540.625,538.909,0.0
53904.0,STARLINK-4787,PAYLOAD,2024-06-30 11:41:47,15.0883312,0.0001303,53.2142,214.4508,97.9231,262.1909,-3.8014e-05,-8.93e-06,0.0,0 STARLINK-4787,1 53904U 22119U   24182.48735412 -.00000893  00000-0 -38014-4 0  9999,2 53904  53.2142 214.4508 0001303  97.9231 262.1909 15.08833120 98515,6917.901,95.438,540.668,538.865,0.0
53904.0,STARLINK-4787,PAYLOAD,2024-06-30 19:38:42,15.08838651,0.0001332,53.2147,212.9649,92.7118,267.4027,5.1936e-05,5.39e-06,0.0,0 STARLINK-4787,1 53904U 22119U   24182.81855291  .00000539  00000-0  51936-4 0  9997,2 53904  53.2147 212.9649 0001332  92.7118 267.4027 15.08838651 98140,6917.885,95.438,540.671,538.828,0.0
53904.0,STARLINK-4787,PAYLOAD,2024-07-01 08:21:47,15.08845275,0.0001332,53.2148,210.586,90.5546,269.5598,0.00015792,2.227e-05,0.0,0 STARLINK-4787,1 53904U 22119U   24183.34847082  .00002227  00000-0  15792-3 0  9990,2 53904  53.2148 210.5860 0001332  90.5546 269.5598 15.08845275 98642,6917.864,95.437,540.651,538.808,0.0
53904.0,STARLINK-4787,PAYLOAD,2024-07-02 05:01:48,15.08839767,0.0001367,53.2146,206.72,90.7174,269.3975,0.00020501,2.976e-05,0.0,0 STARLINK-4787,1 53904U 22119U   24184.20959488  .00002976  00000-0  20501-3 0  9995,2 53904  53.2146 206.7200 0001367  90.7174 269.3975 15.08839767 98356,6917.881,95.438,540.692,538.8,0.0
53904.0,STARLINK-4787,PAYLOAD,2024-07-02 11:23:21,15.08839976,0.0001347,53.2149,205.5307,90.4644,269.6502,0.00014267,1.983e-05,0.0,0 STARLINK-4787,1 53904U 22119U   24184.47455493  .00001983  00000-0  14267-3 0  9990,2 53904  53.2149 205.5307 0001347  90.4644 269.6502 15.08839976 98813,6917.88,95.438,540.677,538.814,0.0
53904.0,STARLINK-4787,PAYLOAD,2024-07-03 08:03:22,15.08838108,0.0001325,53.2161,201.6655,91.6106,268.5037,4.3509e-05,4.05e-06,0.0,0 STARLINK-4787,1 53904U 22119U   24185.33567745  .00000405  00000-0  43509-4 0  9990,2 53904  53.2161 201.6655 0001325  91.6106 268.5037 15.08838108 98527,6917.886,95.438,540.668,538.835,0.0
53904.0,STARLINK-4787,PAYLOAD,2024-07-03 17:35:41,15.08839444,0.0001305,53.216,199.8813,90.42,269.6942,3.8983e-05,3.33e-06,0.0,0 STARLINK-4787,1 53904U 22119U   24185.73311639  .00000333  00000-0  38983-4 0  9993,2 53904  53.2160 199.8813 0001305  90.4200 269.6942 15.08839444 99005,6917.882,95.438,540.65,538.844,0.0
53904.0,STARLINK-4787,PAYLOAD,2024-07-04 07:54:09,15.08836815,0.0001331,53.2163,197.2057,91.9296,268.1849,7.995e-05,9.85e-06,0.0,0 STARLINK-4787,1 53904U 22119U   24186.32927763  .00000985  00000-0  79950-4 0  9992,2 53904  53.2163 197.2057 0001331  91.9296 268.1849 15.08836815 99098,6917.89,95.438,540.676,538.834,0.0
53904.0,STARLINK-4787,PAYLOAD,2024-07-04 17:26:28,15.08839586,0.000133,53.2163,195.4215,91.0133,269.1012,8.9009e-05,1.129e-05,0.0,0 STARLINK-4787,1 53904U 22119U   24186.72671590  .00001129  00000-0  89009-4 0  9997,2 53904  53.2163 195.4215 0001330  91.0133 269.1012 15.08839586 98735,6917.882,95.438,540.667,538.827,0.0
53904.0,STARLINK-4787,PAYLOAD,2024-07-05 07:44:56,15.08838215,0.0001372,53.2165,192.7455,91.6084,268.5066,9.5435e-05,1.231e-05,0.0,0 STARLINK-4787,1 53904U 22119U   24187.32287813  .00001231  00000-0  95435-4 0  9999,2 53904  53.2165 192.7455 0001372  91.6084 268.5066 15.08838215 99247,6917.886,95.438,540.7,538.802,0.0
53904.0,STARLINK-4787,PAYLOAD,2024-07-05 17:17:15,15.0884086,0.0001383,53.2166,190.9611,90.2828,269.8322,9.5521e-05,1.233e-05,0.0,0 STARLINK-4787,1 53904U 22119U   24187.72031684  .00001233  00000-0  95521-4 0  9994,2 53904  53.2166 190.9611 0001383  90.2828 269.8322 15.08840860 99300,6917.878,95.438,540.7,538.786,0.0
